TRANSPORTER-11 OBJECT A 
1 60468U 24149A   26068.74646182  .00010774  00000+0  36054-3 0  9993
2 60468  97.3780 149.0949 0003110 191.0010 169.1164 15.31141332 86830
STARLINK-34640          
1 65092U 25167Q   26068.20867250 -.00021157  00000+0 -70455-3 0  9996
2 65092  53.1618  29.0744 0001442  60.4833 299.6311 15.30184140 33407
